[{"OBJECT_NAME":"OBJECT D","OBJECT_ID":"2024-174D","EPOCH":"2026-03-10T00:15:10.483200","MEAN_MOTION":15.28039787,"ECCENTRICITY":0.00110644,"INCLINATION":97.4441,"RA_OF_ASC_NODE":80.4677,"ARG_OF_PERICENTER":212.9968,"MEAN_ANOMALY":147.0582,"EPHEMERIS_TYPE":0,"CLASSIFICATION_TYPE":"U","NORAD_CAT_ID":61241,"ELEMENT_SET_NO":999,"REV_AT_EPOCH":8076,"BSTAR":0.00036340099,"MEAN_MOTION_DOT":9.884e-5,"MEAN_MOTION_DDOT":0},{"OBJECT_NAME":"STARLINK-34850","OBJECT_ID":"2025-195C","EPOCH":"2026-03-09T17:08:09.142080","MEAN_MOTION":15.30232482,"ECCENTRICITY":0.00010484,"INCLINATION":53.1596,"RA_OF_ASC_NODE":258.3347,"ARG_OF_PERICENTER":68.169,"MEAN_ANOMALY":291.9422,"EPHEMERIS_TYPE":0,"CLASSIFICATION_TYPE":"U","NORAD_CAT_ID":65460,"ELEMENT_SET_NO":999,"REV_AT_EPOCH":2999,"BSTAR":0.0009431071,"MEAN_MOTION_DOT":0.00027705,"MEAN_MOTION_DDOT":0}]
